[{"OBJECT_NAME":"STARLINK-30264","OBJECT_ID":"2023-115P","EPOCH":"2026-03-09T09:47:23.648640","MEAN_MOTION":15.27567754,"ECCENTRICITY":7.537e-5,"INCLINATION":42.996,"RA_OF_ASC_NODE":210.4823,"ARG_OF_PERICENTER":146.8642,"MEAN_ANOMALY":213.2257,"EPHEMERIS_TYPE":0,"CLASSIFICATION_TYPE":"U","NORAD_CAT_ID":57534,"ELEMENT_SET_NO":999,"REV_AT_EPOCH":14531,"BSTAR":7.17316e-6,"MEAN_MOTION_DOT":-6.4e-7,"MEAN_MOTION_DDOT":0},{"OBJECT_NAME":"OTTER","OBJECT_ID":"2025-009Q","EPOCH":"2026-03-09T17:21:07.902432","MEAN_MOTION":15.27809545,"ECCENTRICITY":0.00035728,"INCLINATION":97.4065,"RA_OF_ASC_NODE":151.3812,"ARG_OF_PERICENTER":310.771,"MEAN_ANOMALY":49.3219,"EPHEMERIS_TYPE":0,"CLASSIFICATION_TYPE":"U","NORAD_CAT_ID":62623,"ELEMENT_SET_NO":999,"REV_AT_EPOCH":6372,"BSTAR":0.00045151206,"MEAN_MOTION_DOT":0.00012198,"MEAN_MOTION_DDOT":0}]
